DROR 1                  
1 64784U 25148A   25220.03516914 -.00000031  00000+0  00000+0 0  9992
2 64784   0.0321 318.2058 0001852 116.8959 250.3610  1.00270229   267
TIANZHOU-9              
1 64786U 25149A   25219.92574269  .00021009  00000+0  27974-3 0  9998
2 64786  41.4649  67.1312 0004416  95.8996 264.2345 15.57638250  2697
STARLINK-34629          
1 64790U 25150A   25220.10145765  .00049992  00000+0  82675-3 0  9992
2 64790  70.0005 335.8178 0005592 249.7085 110.3500 15.51943351  3955
STARLINK-34697          
1 64791U 25150B   25220.00001157  .00010508  00000+0  17349-3 0  9995
2 64791  70.0002 336.0914 0003679 274.3025 241.6959 15.52487736  3931
STARLINK-34632          
1 64792U 25150C   25219.88614400  .00156842  00000+0  15074-2 0  9995
2 64792  69.9998 336.2636 0003898 273.6540  86.4208 15.65929723  3925
STARLINK-34693          
1 64793U 25150D   25220.00001157  .00008887  00000+0  14717-3 0  9990
2 64793  70.0002 336.0870 0003529 274.7781 245.0541 15.52488884  3931
STARLINK-34666          
1 64794U 25150E   25220.00001157 -.00097788  00000+0 -16045-2 0  9996
2 64794  70.0001 336.0839 0003766 274.3761 247.3525 15.52548729  3935
STARLINK-34567          
1 64795U 25150F   25220.03516956  .00099263  00000+0  15940-2 0  9999
2 64795  70.0005 335.9869 0003650 282.7182  77.3597 15.52555208  3944
STARLINK-34646          
1 64796U 25150G   25220.09925196  .00119932  00000+0  19181-2 0  9993
2 64796  70.0003 335.8088 0003618 281.6048  78.4732 15.52587915  3952
STARLINK-34641          
1 64797U 25150H   25220.09891489  .00066714  00000+0  10768-2 0  9992
2 64797  70.0009 335.8077 0003735 280.5232  79.5534 15.52549694  3954
STARLINK-34649          
1 64798U 25150J   25220.09856925  .00111398  00000+0  17848-2 0  9994
2 64798  70.0002 335.8061 0003761 277.7997  82.2762 15.52570444  3957
STARLINK-34662          
1 64799U 25150K   25220.00001157 -.01798555  00000+0 -33338-1 0  9995
2 64799  69.9995 336.0717 0003308 279.9625 251.2645 15.52146642  3931
STARLINK-34660          
1 64800U 25150L   25219.96902748  .00099150  00000+0  15933-2 0  9991
2 64800  70.0002 336.1564 0003769 278.3418  81.7341 15.52535679  3932
STARLINK-34604          
1 64801U 25150M   25220.00001157 -.00126570  00000+0 -20838-2 0  9992
2 64801  70.0002 336.0686 0003783 275.5405 259.5981 15.52565245  3935
STARLINK-34658          
1 64802U 25150N   25220.09719963  .00111870  00000+0  17928-2 0  9994
2 64802  70.0002 335.8008 0003772 280.6178  79.4584 15.52561930  3950
STARLINK-34620          
1 64803U 25150P   25220.00001157 -.00118397  00000+0 -19476-2 0  9998
2 64803  70.0001 336.0639 0003462 273.5000 265.4749 15.52559586  3936
STARLINK-34633          
1 64804U 25150Q   25219.96765665  .00086427  00000+0  13915-2 0  9991
2 64804  70.0005 336.1511 0003808 280.0470  80.0287 15.52533995  3933
STARLINK-34624          
1 64805U 25150R   25220.00001157  .00007680  00000+0  12756-3 0  9995
2 64805  70.0003 336.0550 0003744 273.1575 273.5066 15.52489150  3939
STARLINK-34664          
1 64806U 25150S   25220.03173935  .00102901  00000+0  16516-2 0  9992
2 64806  70.0003 335.9730 0003985 272.3045  87.7686 15.52553487  3947
STARLINK-34663          
1 64807U 25150T   25219.91667824  .00004033  00000+0  68287-4 0  9994
2 64807  70.0002 336.2858 0003808 276.3580 162.7638 15.52498786  4856
STARLINK-34696          
1 64808U 25150U   25220.00001157 -.00124864  00000+0 -20553-2 0  9997
2 64808  70.0005 336.0526 0003764 276.3014 272.2520 15.52564598  3933
STARLINK-34675          
1 64809U 25150V   25220.00001157 -.00531721  00000+0 -91647-2 0  9994
2 64809  70.0205 336.0506 0003604 271.9379 278.4964 15.52718149  3935
STARLINK-34608          
1 64810U 25150W   25220.00001157  .00006896  00000+0  11484-3 0  9996
2 64810  70.0005 336.0481 0003707 275.5406 276.8727 15.52489603  3931
STARLINK-34669          
1 64811U 25150X   25220.02968250  .00061019  00000+0  98611-3 0  9990
2 64811  70.0004 335.9644 0003791 276.7159  83.3597 15.52541359  3945
STARLINK-34644          
1 64812U 25150Y   25220.00001157  .00179952  00000+0  27516-2 0  9994
2 64812  70.0000 336.0418 0003624 279.2266 279.0829 15.53611975  3939
STARLINK-34685          
1 64813U 25150Z   25220.02899671  .00102040  00000+0  16392-2 0  9997
2 64813  70.0003 335.9618 0003556 277.2694  82.8088 15.52534215  3948
STARLINK-34668          
1 64814U 25150AA  25219.91667824  .00011686  00000+0  19256-3 0  9995
2 64814  70.0002 336.2646 0003462 274.5385 181.8355 15.52493480  4852
STARLINK-34667          
1 64815U 25150AB  25220.09307864  .00126989  00000+0  20290-2 0  9994
2 64815  70.0003 335.7845 0003718 278.6988  81.3777 15.52587556  3957
KUIPER-00069            
1 64816U 25151A   25220.04322338  .00014651  00000+0  42313-3 0  9997
2 64816  51.8772 177.7674 0005062 215.8104 144.2543 15.35879968  4671
KUIPER-00070            
1 64817U 25151B   25220.08721017 -.00399783  00000+0 -16166-1 0  9998
2 64817  51.8823 178.0775 0005653 251.9229 108.1138 15.25968262  4674
KUIPER-00071            
1 64818U 25151C   25220.08335648 -.00002204  00000+0 -61098-4 0  9996
2 64818  51.8791 177.6787 0003544 205.1454 320.2662 15.30716242  3487
KUIPER-00072            
1 64819U 25151D   25220.04947776  .00019339  00000+0  56172-3 0  9995
2 64819  51.8763 177.8037 0004629 230.9482 129.1093 15.35487533  3497
KUIPER-00073            
1 64820U 25151E   25220.08335648  .00005696  00000+0  19862-3 0  9996
2 64820  51.8799 177.7161 0004692 221.6652 300.2710 15.31105965  4672
KUIPER-00074            
1 64821U 25151F   25220.04689991  .00015415  00000+0  44871-3 0  9994
2 64821  51.8768 177.7875 0004685 227.2766 132.7826 15.35590186  3493
KUIPER-00075            
1 64822U 25151G   25220.04586051  .00020867  00000+0  60027-3 0  9996
2 64822  51.8777 177.7888 0004712 217.9671 142.0984 15.35738517  3491
KUIPER-00076            
1 64823U 25151H   25220.04857578  .00017123  00000+0  49930-3 0  9993
2 64823  51.8766 177.7982 0004837 222.2739 137.7875 15.35451899  3492
KUIPER-00077            
1 64824U 25151J   25220.05092164  .00022723  00000+0  65897-3 0  9999
2 64824  51.8783 177.8211 0005377 234.6519 125.3964 15.35428030  3483
KUIPER-00078            
1 64825U 25151K   25220.05043587  .00019689  00000+0  57226-3 0  9999
2 64825  51.8774 177.8132 0005464 237.2213 122.8247 15.35450820  3492
KUIPER-00079            
1 64826U 25151L   25220.04110382  .00019038  00000+0  54241-3 0  9999
2 64826  51.8773 177.7539 0005854 211.8107 148.2526 15.36098487  4698
KUIPER-00080            
1 64827U 25151M   25220.04535210  .00022774  00000+0  65231-3 0  9993
2 64827  51.8778 177.7849 0004780 221.9022 138.1598 15.35817817  3492
KUIPER-00082            
1 64828U 25151N   25220.04380396  .00023681  00000+0  67558-3 0  9999
2 64828  51.8771 177.7694 0005188 217.1680 142.8947 15.35918694  3499
KUIPER-00083            
1 64829U 25151P   25220.04944331 -.00002059  00000+0 -47832-4 0  9997
2 64829  51.8768 177.8036 0005084 231.4007 128.6524 15.35467580  4682
KUIPER-00084            
1 64830U 25151Q   25220.08610000 -.00157003  00000+0 -58554-2 0  9997
2 64830  51.8825 178.0255 0005727 232.5347 127.5116 15.27523886  3493
KUIPER-00085            
1 64831U 25151R   25220.04183595  .00027724  00000+0  78639-3 0  9999
2 64831  51.8774 177.7590 0005714 214.7078 145.3536 15.36005803  3492
KUIPER-00086            
1 64832U 25151S   25220.05157660  .00020589  00000+0  59971-3 0  9995
2 64832  51.8772 177.8189 0005276 237.7924 122.2551 15.35353409  3481
KUIPER-00087            
1 64833U 25151T   25220.04516139  .00027711  00000+0  79222-3 0  9990
2 64833  51.8775 177.7831 0005070 214.0778 145.9883 15.35762394  3493
KUIPER-00089            
1 64834U 25151U   25220.04943901  .00014347  00000+0  42002-3 0  9999
2 64834  51.8778 177.8109 0005314 235.6703 124.3780 15.35470796  3493
KUIPER-00090            
1 64835U 25151V   25220.05264807  .00013228  00000+0  39120-3 0  9996
2 64835  51.8776 177.8298 0005377 240.7935 119.2514 15.35225342  3486
KUIPER-00091            
1 64836U 25151W   25220.04276036  .00023406  00000+0  66911-3 0  9990
2 64836  51.8770 177.7620 0005209 211.3967 148.6708 15.35860366  3495
KUIPER-00092            
1 64837U 25151X   25220.04562907  .00022399  00000+0  64243-3 0  9992
2 64837  51.8769 177.7793 0005238 222.5368 137.5212 15.35785284  4703
KUIPER-00093            
1 64838U 25151Y   25220.04891131  .00014025  00000+0  40989-3 0  9995
2 64838  51.8781 177.8084 0005031 227.5517 132.5044 15.35545404  3495
KUIPER-00094            
1 64839U 25151Z   25220.04511767  .00032302  00000+0  92101-3 0  9991
2 64839  51.8771 177.7770 0004871 223.3826 136.6777 15.35767404  3724
2025-135BT              
1 64840U 25135BT  25219.85475979  .00001675  00000+0  16858-3 0  9990
2 64840  97.7486 333.5293 0004484 309.4798  50.6024 14.92508505  7141
2025-135BU              
1 64841U 25135BU  25219.85862310  .00006640  00000+0  64595-3 0  9998
2 64841  97.7508 333.5297 0008688 180.0214 180.1007 14.92851207  7147
STARLINK-34723          
1 64842U 25152A   25220.04847370 -.00323233  00000+0 -45910-2 0  9991
2 64842  97.6018  73.0968 0003096  60.9761 299.1803 15.57429054  3150
STARLINK-34725          
1 64843U 25152B   25220.04809913 -.00173850  00000+0 -24056-2 0  9999
2 64843  97.6018  73.0979 0002152 130.8216 229.3226 15.57636990  3150
STARLINK-34709          
1 64844U 25152C   25220.04778713 -.00333133  00000+0 -47371-2 0  9990
2 64844  97.6016  73.0971 0002701  59.0878 301.0642 15.57433153  3153
STARLINK-34706          
1 64845U 25152D   25220.04744369 -.00327089  00000+0 -46487-2 0  9991
2 64845  97.6016  73.0984 0002944  65.0649 295.0911 15.57425864  3151
STARLINK-34736          
1 64846U 25152E   25220.04709965 -.00313459  00000+0 -44486-2 0  9998
2 64846  97.6015  73.0973 0002824  67.3742 292.7812 15.57420164  3157
